[{"OBJECT_NAME":"DUPLEX","OBJECT_ID":"1998-067XS","EPOCH":"2026-04-01T21:14:34.850112","MEAN_MOTION":15.5777337,"ECCENTRICITY":0.0003086,"INCLINATION":51.629,"RA_OF_ASC_NODE":313.3003,"ARG_OF_PERICENTER":220.5371,"MEAN_ANOMALY":139.5391,"EPHEMERIS_TYPE":0,"CLASSIFICATION_TYPE":"U","NORAD_CAT_ID":66906,"ELEMENT_SET_NO":999,"REV_AT_EPOCH":1874,"BSTAR":0.00043265,"MEAN_MOTION_DOT":0.00032412,"MEAN_MOTION_DDOT":0},{"OBJECT_NAME":"ISS OBJECT XT","OBJECT_ID":"1998-067XT","EPOCH":"2026-04-01T21:24:26.654688","MEAN_MOTION":15.7843381,"ECCENTRICITY":0.00067499,"INCLINATION":51.6226,"RA_OF_ASC_NODE":306.5524,"ARG_OF_PERICENTER":231.8821,"MEAN_ANOMALY":128.1571,"EPHEMERIS_TYPE":0,"CLASSIFICATION_TYPE":"U","NORAD_CAT_ID":66907,"ELEMENT_SET_NO":999,"REV_AT_EPOCH":1883,"BSTAR":0.0014894943,"MEAN_MOTION_DOT":0.00271653,"MEAN_MOTION_DDOT":0},{"OBJECT_NAME":"ISS OBJECT XU","OBJECT_ID":"1998-067XU","EPOCH":"2026-04-01T21:17:58.200288","MEAN_MOTION":15.78743702,"ECCENTRICITY":0.00069709,"INCLINATION":51.6227,"RA_OF_ASC_NODE":306.5178,"ARG_OF_PERICENTER":231.5533,"MEAN_ANOMALY":128.4842,"EPHEMERIS_TYPE":0,"CLASSIFICATION_TYPE":"U","NORAD_CAT_ID":66908,"ELEMENT_SET_NO":999,"REV_AT_EPOCH":1883,"BSTAR":0.0015333196,"MEAN_MOTION_DOT":0.00284033,"MEAN_MOTION_DDOT":0},{"OBJECT_NAME":"SILVERSAT","OBJECT_ID":"1998-067XV","EPOCH":"2026-04-02T00:22:43.751424","MEAN_MOTION":15.85122175,"ECCENTRICITY":0.00083131,"INCLINATION":51.6185,"RA_OF_ASC_NODE":304.3569,"ARG_OF_PERICENTER":239.9802,"MEAN_ANOMALY":120.0377,"EPHEMERIS_TYPE":0,"CLASSIFICATION_TYPE":"U","NORAD_CAT_ID":66909,"ELEMENT_SET_NO":999,"REV_AT_EPOCH":1887,"BSTAR":0.00166537,"MEAN_MOTION_DOT":0.0042222,"MEAN_MOTION_DDOT":0},{"OBJECT_NAME":"ISS OBJECT XW","OBJECT_ID":"1998-067XW","EPOCH":"2026-04-01T23:11:54.988224","MEAN_MOTION":15.76710438,"ECCENTRICITY":0.0007046,"INCLINATION":51.6211,"RA_OF_ASC_NODE":306.293,"ARG_OF_PERICENTER":228.1429,"MEAN_ANOMALY":131.897,"EPHEMERIS_TYPE":0,"CLASSIFICATION_TYPE":"U","NORAD_CAT_ID":66910,"ELEMENT_SET_NO":999,"REV_AT_EPOCH":1884,"BSTAR":0.0013372,"MEAN_MOTION_DOT":0.00224524,"MEAN_MOTION_DDOT":0},{"OBJECT_NAME":"ISS OBJECT XX","OBJECT_ID":"1998-067XX","EPOCH":"2026-04-01T21:00:05.872608","MEAN_MOTION":15.93473578,"ECCENTRICITY":0.00102784,"INCLINATION":51.6164,"RA_OF_ASC_NODE":303.3744,"ARG_OF_PERICENTER":244.107,"MEAN_ANOMALY":115.8878,"EPHEMERIS_TYPE":0,"CLASSIFICATION_TYPE":"U","NORAD_CAT_ID":66911,"ELEMENT_SET_NO":999,"REV_AT_EPOCH":1886,"BSTAR":0.0017622444,"MEAN_MOTION_DOT":0.00647261,"MEAN_MOTION_DDOT":0.00018197289},{"OBJECT_NAME":"ISS OBJECT XY","OBJECT_ID":"1998-067XY","EPOCH":"2026-04-02T07:39:49.260960","MEAN_MOTION":15.6874673,"ECCENTRICITY":0.00047246,"INCLINATION":51.626,"RA_OF_ASC_NODE":307.1846,"ARG_OF_PERICENTER":228.4788,"MEAN_ANOMALY":131.5804,"EPHEMERIS_TYPE":0,"CLASSIFICATION_TYPE":"U","NORAD_CAT_ID":66912,"ELEMENT_SET_NO":999,"REV_AT_EPOCH":1885,"BSTAR":0.0012969542,"MEAN_MOTION_DOT":0.0015355,"MEAN_MOTION_DDOT":0},{"OBJECT_NAME":"KNACKSAT-2","OBJECT_ID":"1998-067XZ","EPOCH":"2026-04-02T00:35:52.009728","MEAN_MOTION":15.53816312,"ECCENTRICITY":0.00103577,"INCLINATION":51.6312,"RA_OF_ASC_NODE":315.735,"ARG_OF_PERICENTER":271.4198,"MEAN_ANOMALY":88.5606,"EPHEMERIS_TYPE":0,"CLASSIFICATION_TYPE":"U","NORAD_CAT_ID":67683,"ELEMENT_SET_NO":999,"REV_AT_EPOCH":841,"BSTAR":0.00070546081,"MEAN_MOTION_DOT":0.00046055,"MEAN_MOTION_DDOT":0},{"OBJECT_NAME":"CORAL","OBJECT_ID":"1998-067YA","EPOCH":"2026-04-02T00:13:32.655936","MEAN_MOTION":15.58432095,"ECCENTRICITY":0.00132941,"INCLINATION":51.6293,"RA_OF_ASC_NODE":314.8808,"ARG_OF_PERICENTER":261.1138,"MEAN_ANOMALY":98.8349,"EPHEMERIS_TYPE":0,"CLASSIFICATION_TYPE":"U","NORAD_CAT_ID":67684,"ELEMENT_SET_NO":999,"REV_AT_EPOCH":842,"BSTAR":0.0012221245,"MEAN_MOTION_DOT":0.00095906,"MEAN_MOTION_DDOT":0},{"OBJECT_NAME":"GXIBA-1","OBJECT_ID":"1998-067YB","EPOCH":"2026-04-01T21:14:06.336384","MEAN_MOTION":15.54391194,"ECCENTRICITY":0.00122958,"INCLINATION":51.6317,"RA_OF_ASC_NODE":316.2995,"ARG_OF_PERICENTER":267.6907,"MEAN_ANOMALY":92.2676,"EPHEMERIS_TYPE":0,"CLASSIFICATION_TYPE":"U","NORAD_CAT_ID":67685,"ELEMENT_SET_NO":999,"REV_AT_EPOCH":839,"BSTAR":0.00072618328,"MEAN_MOTION_DOT":0.00048495,"MEAN_MOTION_DDOT":0},{"OBJECT_NAME":"UITMSAT-2","OBJECT_ID":"1998-067YC","EPOCH":"2026-04-02T07:36:54.720864","MEAN_MOTION":15.55507435,"ECCENTRICITY":0.00093386,"INCLINATION":51.6307,"RA_OF_ASC_NODE":313.9404,"ARG_OF_PERICENTER":243.0749,"MEAN_ANOMALY":116.9288,"EPHEMERIS_TYPE":0,"CLASSIFICATION_TYPE":"U","NORAD_CAT_ID":67686,"ELEMENT_SET_NO":999,"REV_AT_EPOCH":846,"BSTAR":0.0011234476,"MEAN_MOTION_DOT":0.00078647,"MEAN_MOTION_DDOT":0},{"OBJECT_NAME":"HMU-SAT2","OBJECT_ID":"1998-067YD","EPOCH":"2026-04-02T00:27:21.531744","MEAN_MOTION":15.54142799,"ECCENTRICITY":0.00089072,"INCLINATION":51.6316,"RA_OF_ASC_NODE":315.6984,"ARG_OF_PERICENTER":244.0786,"MEAN_ANOMALY":115.9287,"EPHEMERIS_TYPE":0,"CLASSIFICATION_TYPE":"U","NORAD_CAT_ID":67687,"ELEMENT_SET_NO":999,"REV_AT_EPOCH":833,"BSTAR":0.00072718698,"MEAN_MOTION_DOT":0.00048045,"MEAN_MOTION_DDOT":0},{"OBJECT_NAME":"LEOPARD","OBJECT_ID":"1998-067YE","EPOCH":"2026-04-02T00:05:42.210528","MEAN_MOTION":15.5497949,"ECCENTRICITY":0.00090949,"INCLINATION":51.631,"RA_OF_ASC_NODE":315.5981,"ARG_OF_PERICENTER":241.6191,"MEAN_ANOMALY":118.3884,"EPHEMERIS_TYPE":0,"CLASSIFICATION_TYPE":"U","NORAD_CAT_ID":67688,"ELEMENT_SET_NO":999,"REV_AT_EPOCH":833,"BSTAR":0.0007975081,"MEAN_MOTION_DOT":0.00054438,"MEAN_MOTION_DDOT":0},{"OBJECT_NAME":"CREW DRAGON 12","OBJECT_ID":"2026-031A","EPOCH":"2026-04-02T03:12:11.610144","MEAN_MOTION":15.48713693,"ECCENTRICITY":0.00062399,"INCLINATION":51.6331,"RA_OF_ASC_NODE":316.4579,"ARG_OF_PERICENTER":262.1298,"MEAN_ANOMALY":97.8982,"EPHEMERIS_TYPE":0,"CLASSIFICATION_TYPE":"U","NORAD_CAT_ID":67796,"ELEMENT_SET_NO":999,"REV_AT_EPOCH":55993,"BSTAR":0.00020754706,"MEAN_MOTION_DOT":0.00010892,"MEAN_MOTION_DDOT":0},{"OBJECT_NAME":"PROGRESS-MS 33","OBJECT_ID":"2026-058A","EPOCH":"2026-04-02T03:12:11.610144","MEAN_MOTION":15.48713693,"ECCENTRICITY":0.00062399,"INCLINATION":51.6331,"RA_OF_ASC_NODE":316.4579,"ARG_OF_PERICENTER":262.1298,"MEAN_ANOMALY":97.8982,"EPHEMERIS_TYPE":0,"CLASSIFICATION_TYPE":"U","NORAD_CAT_ID":68319,"ELEMENT_SET_NO":999,"REV_AT_EPOCH":125,"BSTAR":0.00020754706,"MEAN_MOTION_DOT":0.00010892,"MEAN_MOTION_DDOT":0}]
